[{"OBJECT_NAME":"STARLINK-3616","OBJECT_ID":"2022-017Q","EPOCH":"2026-03-09T22:44:21.814944","MEAN_MOTION":15.08830354,"ECCENTRICITY":0.00014454,"INCLINATION":53.2204,"RA_OF_ASC_NODE":348.1168,"ARG_OF_PERICENTER":88.017,"MEAN_ANOMALY":272.0988,"EPHEMERIS_TYPE":0,"CLASSIFICATION_TYPE":"U","NORAD_CAT_ID":51782,"ELEMENT_SET_NO":999,"REV_AT_EPOCH":22222,"BSTAR":-5.8310681e-5,"MEAN_MOTION_DOT":-1.216e-5,"MEAN_MOTION_DDOT":0},{"OBJECT_NAME":"THE ARAB SATELLITE 813","OBJECT_ID":"2025-292B","EPOCH":"2026-03-09T21:37:26.354208","MEAN_MOTION":15.05594469,"ECCENTRICITY":0.00142186,"INCLINATION":97.6379,"RA_OF_ASC_NODE":145.6178,"ARG_OF_PERICENTER":341.4344,"MEAN_ANOMALY":18.6363,"EPHEMERIS_TYPE":0,"CLASSIFICATION_TYPE":"U","NORAD_CAT_ID":66994,"ELEMENT_SET_NO":999,"REV_AT_EPOCH":1350,"BSTAR":0.00043840303,"MEAN_MOTION_DOT":6.274e-5,"MEAN_MOTION_DDOT":0}]
